{
  "target": "2006 RH120",
  "source": "MPC via astrox.cn:8765/celestial/mpc",
  "OrbitElements": {
    "EpochMjdTdt": 59000,
    "PeriTimeMjdTdt": 58649.4260489487,
    "Q": 1.0078555153098,
    "SemimajorAxis": 1.0331462432925291,
    "Eccentricity": 0.024479330149941,
    "Inclination": 0.594792050257,
    "Raan": 51.1807735534088,
    "ArgOfPeriapsis": 10.1691809932957,
    "MeanAnomaly": 329.0341808758391
  },
  "notes": "SemimajorAxis in AU, Q in AU. Asteroid 2006 RH120 is an Earth quasi-satellite with near-Earth orbit (a~1.033 AU, e~0.024, i~0.6 deg)"
}
